{"fetched_at":"2026-03-30T13:17:50Z","count":15418,"tles":[{"name":"PIESAT-2 10","line1":"1 62334U 24241B   26085.67789021  .00009223  00000+0  51992-3 0  9996","line2":"2 62334  97.5310  34.6210 0001517  80.6268 279.5134 15.13407349 70325","category":"Other"}]}